start=new Date('2022-01-30T00:00:00.000Z').valueOf();
sats=[{"ARG_OF_PERICENTER":"36.2752","TIME_SYSTEM":"UTC","REV_AT_EPOCH":"359","RCS_SIZE":"LARGE","RA_OF_ASC_NODE":"51.9637","CENTER_NAME":"EARTH","COUNTRY_CODE":"US","MEAN_MOTION_DOT":"0.00051873","ECCENTRICITY":"0.00025240","APOAPSIS":"541.536","CLASSIFICATION_TYPE":"U","EPOCH":"2022-01-29T22:00:00.999936","EPHEMERIS_TYPE":"0","TLE_LINE2":"2 49739  53.1950  51.9637 0002524  36.2752 316.5315 15.08825390  3598","NORAD_CAT_ID":"49739","MEAN_ANOMALY":"316.5315","PERIOD":"95.438","DECAY_DATE":null,"MEAN_ELEMENT_THEORY":"SGP4","PERIAPSIS":"538.044","INCLINATION":"53.1950","MEAN_MOTION_DDOT":"0.0000000000000","OBJECT_NAME":"STARLINK-3155","SITE":"AFETR","SEMIMAJOR_AXIS":"6917.925","REF_FRAME":"TEME","GP_ID":"194914621","LAUNCH_DATE":"2021-12-02","FILE":"3287083","BSTAR":"0.00325470000000","TLE_LINE1":"1 49739U 21115R   22029.91667824  .00051873  00000-0  32547-2 0  9997","MEAN_MOTION":"15.08825390","OBJECT_TYPE":"PAYLOAD","OBJECT_ID":"2021-115R","ELEMENT_SET_NO":"999"},{"CLASSIFICATION_TYPE":"U","APOAPSIS":"453.289","ECCENTRICITY":"0.00030210","EPOCH":"2022-01-29T22:00:00.999936","COUNTRY_CODE":"US","MEAN_MOTION_DOT":"-0.00673766","CENTER_NAME":"EARTH","RA_OF_ASC_NODE":"44.1251","RCS_SIZE":"LARGE","REV_AT_EPOCH":"1019","TIME_SYSTEM":"UTC","ARG_OF_PERICENTER":"333.1279","MEAN_MOTION":"15.38270265","OBJECT_TYPE":"PAYLOAD","TLE_LINE1":"1 49740U 21115S   22029.91667824 -.00673766  00000-0 -18951-1 0  9994","BSTAR":"-0.01895100000000","FILE":"3287046","ELEMENT_SET_NO":"999","OBJECT_ID":"2021-115S","SEMIMAJOR_AXIS":"6829.361","SITE":"AFETR","REF_FRAME":"TEME","OBJECT_NAME":"STARLINK-3226","LAUNCH_DATE":"2021-12-02","GP_ID":"194891576","INCLINATION":"53.2172","PERIAPSIS":"449.163","MEAN_ELEMENT_THEORY":"SGP4","DECAY_DATE":null,"PERIOD":"93.612","MEAN_ANOMALY":"179.8327","MEAN_MOTION_DDOT":"0.0000000000000","NORAD_CAT_ID":"49740","TLE_LINE2":"2 49740  53.2172  44.1251 0003021 333.1279 179.8327 15.38270265 10194","EPHEMERIS_TYPE":"0"},{"BSTAR":"-0.01839300000000","FILE":"3287083","OBJECT_TYPE":"PAYLOAD","MEAN_MOTION":"15.38731490","TLE_LINE1":"1 49741U 21115T   22029.91667824 -.00664603  00000-0 -18393-1 0  9995","OBJECT_ID":"2021-115T","ELEMENT_SET_NO":"999","SITE":"AFETR","OBJECT_NAME":"STARLINK-3244","SEMIMAJOR_AXIS":"6827.996","REF_FRAME":"TEME","LAUNCH_DATE":"2021-12-02","GP_ID":"194916123","DECAY_DATE":null,"MEAN_ANOMALY":"149.4746","PERIOD":"93.584","INCLINATION":"53.2172","PERIAPSIS":"447.742","MEAN_ELEMENT_THEORY":"SGP4","MEAN_MOTION_DDOT":"0.0000000000000","NORAD_CAT_ID":"49741","TLE_LINE2":"2 49741  53.2172  44.1236 0003104   7.9430 149.4746 15.38731490  3647","EPHEMERIS_TYPE":"0","ECCENTRICITY":"0.00031040","APOAPSIS":"451.981","CLASSIFICATION_TYPE":"U","EPOCH":"2022-01-29T22:00:00.999936","COUNTRY_CODE":"US","MEAN_MOTION_DOT":"-0.00664603","RA_OF_ASC_NODE":"44.1236","CENTER_NAME":"EARTH","TIME_SYSTEM":"UTC","ARG_OF_PERICENTER":"7.9430","RCS_SIZE":"LARGE","REV_AT_EPOCH":"364"},{"ELEMENT_SET_NO":"999","OBJECT_ID":"2021-115U","MEAN_MOTION":"15.37804510","OBJECT_TYPE":"PAYLOAD","TLE_LINE1":"1 49742U 21115U   22029.91667824 -.00674479  00000-0 -19256-1 0  9997","FILE":"3287083","BSTAR":"-0.01925600000000","LAUNCH_DATE":"2021-12-02","GP_ID":"194915874","SEMIMAJOR_AXIS":"6830.740","SITE":"AFETR","REF_FRAME":"TEME","OBJECT_NAME":"STARLINK-3202","MEAN_MOTION_DDOT":"0.0000000000000","INCLINATION":"53.2172","PERIAPSIS":"449.521","MEAN_ELEMENT_THEORY":"SGP4","DECAY_DATE":null,"MEAN_ANOMALY":"195.7324","PERIOD":"93.640","NORAD_CAT_ID":"49742","EPHEMERIS_TYPE":"0","TLE_LINE2":"2 49742  53.2172  44.1254 0004515 312.2148 195.7324 15.37804510  3642","EPOCH":"2022-01-29T22:00:00.999936","CLASSIFICATION_TYPE":"U","APOAPSIS":"455.689","ECCENTRICITY":"0.00045150","MEAN_MOTION_DOT":"-0.00674479","COUNTRY_CODE":"US","CENTER_NAME":"EARTH","RA_OF_ASC_NODE":"44.1254","RCS_SIZE":"LARGE","REV_AT_EPOCH":"364","TIME_SYSTEM":"UTC","ARG_OF_PERICENTER":"312.2148"},{"EPOCH":"2022-01-29T22:00:00.999936","CLASSIFICATION_TYPE":"U","ECCENTRICITY":"0.00030940","APOAPSIS":"452.656","MEAN_MOTION_DOT":"-0.00669681","COUNTRY_CODE":"US","CENTER_NAME":"EARTH","RA_OF_ASC_NODE":"44.1245","REV_AT_EPOCH":"1019","RCS_SIZE":"LARGE","ARG_OF_PERICENTER":"353.7896","TIME_SYSTEM":"UTC","ELEMENT_SET_NO":"999","OBJECT_ID":"2021-115V","TLE_LINE1":"1 49743U 21115V   22029.91667824 -.00669681  00000-0 -18685-1 0  9992","MEAN_MOTION":"15.38501185","OBJECT_TYPE":"PAYLOAD","FILE":"3287068","BSTAR":"-0.01868500000000","GP_ID":"194891890","LAUNCH_DATE":"2021-12-02","REF_FRAME":"TEME","SITE":"AFETR","SEMIMAJOR_AXIS":"6828.678","OBJECT_NAME":"STARLINK-3239","MEAN_MOTION_DDOT":"0.0000000000000","PERIAPSIS":"448.430","MEAN_ELEMENT_THEORY":"SGP4","INCLINATION":"53.2172","PERIOD":"93.598","MEAN_ANOMALY":"161.4690","DECAY_DATE":null,"TLE_LINE2":"2 49743  53.2172  44.1245 0003094 353.7896 161.4690 15.38501185 10191","EPHEMERIS_TYPE":"0","NORAD_CAT_ID":"49743"},{"RCS_SIZE":"LARGE","REV_AT_EPOCH":"364","TIME_SYSTEM":"UTC","ARG_OF_PERICENTER":"307.0495","CENTER_NAME":"EARTH","RA_OF_ASC_NODE":"44.1246","COUNTRY_CODE":"US","MEAN_MOTION_DOT":"-0.00674881","CLASSIFICATION_TYPE":"U","ECCENTRICITY":"0.00044190","APOAPSIS":"457.003","EPOCH":"2022-01-29T22:00:00.999936","NORAD_CAT_ID":"49744","EPHEMERIS_TYPE":"0","TLE_LINE2":"2 49744  53.2172  44.1246 0004419 307.0495 195.3262 15.37338948  3649","INCLINATION":"53.2172","PERIAPSIS":"450.965","MEAN_ELEMENT_THEORY":"SGP4","DECAY_DATE":null,"MEAN_ANOMALY":"195.3262","PERIOD":"93.668","MEAN_MOTION_DDOT":"0.0000000000000","REF_FRAME":"TEME","SITE":"AFETR","SEMIMAJOR_AXIS":"6832.119","OBJECT_NAME":"STARLINK-3231","LAUNCH_DATE":"2021-12-02","GP_ID":"194915372","OBJECT_TYPE":"PAYLOAD","MEAN_MOTION":"15.37338948","TLE_LINE1":"1 49744U 21115W   22029.91667824 -.00674881  00000-0 -19564-1 0  9998","BSTAR":"-0.01956400000000","FILE":"3287083","ELEMENT_SET_NO":"999","OBJECT_ID":"2021-115W"},{"TIME_SYSTEM":"UTC","ARG_OF_PERICENTER":"317.5928","RCS_SIZE":"LARGE","REV_AT_EPOCH":"364","RA_OF_ASC_NODE":"44.1255","CENTER_NAME":"EARTH","MEAN_MOTION_DOT":"-0.00674620","COUNTRY_CODE":"US","EPOCH":"2022-01-29T22:00:00.999936","APOAPSIS":"454.511","ECCENTRICITY":"0.00038010","CLASSIFICATION_TYPE":"U","NORAD_CAT_ID":"49745","EPHEMERIS_TYPE":"0","TLE_LINE2":"2 49745  53.2172  44.1255 0003801 317.5928 192.9307 15.38037640  3640","MEAN_MOTION_DDOT":"0.0000000000000","DECAY_DATE":null,"PERIOD":"93.626","MEAN_ANOMALY":"192.9307","INCLINATION":"53.2172","PERIAPSIS":"449.319","MEAN_ELEMENT_THEORY":"SGP4","LAUNCH_DATE":"2021-12-02","GP_ID":"194915624","SITE":"AFETR","SEMIMAJOR_AXIS":"6830.050","REF_FRAME":"TEME","OBJECT_NAME":"STARLINK-3241","OBJECT_ID":"2021-115X","ELEMENT_SET_NO":"999","FILE":"3287083","BSTAR":"-0.01911800000000","MEAN_MOTION":"15.38037640","OBJECT_TYPE":"PAYLOAD","TLE_LINE1":"1 49745U 21115X   22029.91667824 -.00674620  00000-0 -19118-1 0  9995"},{"EPHEMERIS_TYPE":"0","TLE_LINE2":"2 49746  53.2172  44.1226 0004891 301.8314 194.4153 15.36873042  3642","NORAD_CAT_ID":"49746","MEAN_MOTION_DDOT":"0.0000000000000","MEAN_ELEMENT_THEORY":"SGP4","PERIAPSIS":"452.022","INCLINATION":"53.2172","MEAN_ANOMALY":"194.4153","PERIOD":"93.697","DECAY_DATE":null,"GP_ID":"194916374","LAUNCH_DATE":"2021-12-02","OBJECT_NAME":"STARLINK-3233","SITE":"AFETR","SEMIMAJOR_AXIS":"6833.500","REF_FRAME":"TEME","ELEMENT_SET_NO":"999","OBJECT_ID":"2021-115Y","TLE_LINE1":"1 49746U 21115Y   22029.91667824 -.00674912  00000-0 -19861-1 0  9995","OBJECT_TYPE":"PAYLOAD","MEAN_MOTION":"15.36873042","BSTAR":"-0.01986100000000","FILE":"3287083","REV_AT_EPOCH":"364","RCS_SIZE":"LARGE","ARG_OF_PERICENTER":"301.8314","TIME_SYSTEM":"UTC","CENTER_NAME":"EARTH","RA_OF_ASC_NODE":"44.1226","MEAN_MOTION_DOT":"-0.00674912","COUNTRY_CODE":"US","EPOCH":"2022-01-29T22:00:00.999936","CLASSIFICATION_TYPE":"U","ECCENTRICITY":"0.00048910","APOAPSIS":"458.707"},{"LAUNCH_DATE":"2021-12-02","GP_ID":"194914622","REF_FRAME":"TEME","SITE":"AFETR","SEMIMAJOR_AXIS":"6831.430","OBJECT_NAME":"STARLINK-3247","ELEMENT_SET_NO":"999","OBJECT_ID":"2021-115Z","OBJECT_TYPE":"PAYLOAD","MEAN_MOTION":"15.37571512","TLE_LINE1":"1 49747U 21115Z   22029.91667824 -.00674510  00000-0 -19402-1 0  9991","FILE":"3287083","BSTAR":"-0.01940200000000","NORAD_CAT_ID":"49747","EPHEMERIS_TYPE":"0","TLE_LINE2":"2 49747  53.2172  44.1252 0004860 308.2987 196.9326 15.37571512  3642","MEAN_MOTION_DDOT":"0.0000000000000","INCLINATION":"53.2172","MEAN_ELEMENT_THEORY":"SGP4","PERIAPSIS":"449.975","DECAY_DATE":null,"PERIOD":"93.654","MEAN_ANOMALY":"196.9326","MEAN_MOTION_DOT":"-0.00674510","COUNTRY_CODE":"US","EPOCH":"2022-01-29T22:00:00.999936","CLASSIFICATION_TYPE":"U","ECCENTRICITY":"0.00048600","APOAPSIS":"456.615","RCS_SIZE":"LARGE","REV_AT_EPOCH":"364","TIME_SYSTEM":"UTC","ARG_OF_PERICENTER":"308.2987","CENTER_NAME":"EARTH","RA_OF_ASC_NODE":"44.1252"},{"TLE_LINE2":"2 49748  53.2175  44.1438 0002769  18.8463 132.1179 15.40533607 10194","EPHEMERIS_TYPE":"0","NORAD_CAT_ID":"49748","MEAN_MOTION_DDOT":"0.0000000000000","MEAN_ANOMALY":"132.1179","PERIOD":"93.474","DECAY_DATE":null,"PERIAPSIS":"442.646","MEAN_ELEMENT_THEORY":"SGP4","INCLINATION":"53.2175","GP_ID":"194891880","LAUNCH_DATE":"2021-12-02","SEMIMAJOR_AXIS":"6822.670","SITE":"AFETR","OBJECT_NAME":"STARLINK-3248","REF_FRAME":"TEME","OBJECT_ID":"2021-115AA","ELEMENT_SET_NO":"999","BSTAR":"-0.00922210000000","FILE":"3287068","TLE_LINE1":"1 49748U 21115AA  22029.91667824 -.00363139  00000-0 -92221-2 0  9995","MEAN_MOTION":"15.40533607","OBJECT_TYPE":"PAYLOAD","ARG_OF_PERICENTER":"18.8463","TIME_SYSTEM":"UTC","REV_AT_EPOCH":"1019","RCS_SIZE":"LARGE","RA_OF_ASC_NODE":"44.1438","CENTER_NAME":"EARTH","MEAN_MOTION_DOT":"-0.00363139","COUNTRY_CODE":"US","EPOCH":"2022-01-29T22:00:00.999936","ECCENTRICITY":"0.00027690","APOAPSIS":"446.425","CLASSIFICATION_TYPE":"U"}];
